,id,name,line,line_detail,address,latitude_x,longitude_x,latitude_y,longitude_y,sido,gu,dong
0,강남2,강남,2,2,서울특별시 강남구 강남대로 지하 396,37.497175,127.027926,37.497175,127.027926,서울특별시,서초구,서초2동
1,강남S,강남,S,신분당,서울특별시 강남구 강남대로 지하 396,37.497175,127.027926,37.497175,127.027926,서울특별시,서초구,서초2동
2,구룡B,구룡,B,분당,서울특별시 강남구 개포로 지하 403,37.486839,127.058856,37.486839,127.058856,서울특별시,강남구,개포2동
3,개포동B,개포동,B,분당,서울특별시 강남구 개포로 지하 420,37.489116,127.06614,37.489116,127.06614,서울특별시,강남구,개포2동
4,대모산입구B,대모산입구,B,분당,서울특별시 강남구 개포로 지하 522,37.491373,127.07272,37.491373,127.07272,서울특별시,강남구,개포2동
5,수서3,수서,3,3,서울특별시 강남구 광평로 지하 270,37.487371,127.10188,37.487371,127.10188,서울특별시,강남구,수서동
6,수서B,수서,B,분당,서울특별시 강남구 광평로 지하 270,37.487371,127.10188,37.487371,127.10188,서울특별시,강남구,수서동
7,매봉3,매봉,3,3,서울특별시 강남구 남부순환로 지하 2744,37.486947,127.046769,37.486947,127.046769,서울특별시,강남구,도곡1동
8,도곡3,도곡,3,3,서울특별시 강남구 남부순환로 지하 2814,37.490858,127.055381,37.490858,127.055381,서울특별시,강남구,도곡2동
9,도곡B,도곡,B,분당,서울특별시 강남구 남부순환로 지하 2814,37.490858,127.055381,37.490858,127.055381,서울특별시,강남구,도곡2동
10,대치3,대치,3,3,서울특별시 강남구 남부순환로 지하 2952,37.494612,127.063642,37.494612,127.063642,서울특별시,강남구,대치2동
11,학여울3,학여울,3,3,서울특별시 강남구 남부순환로 지하 3104,37.496663,127.070594,37.496663,127.070594,서울특별시,강남구,대치2동
12,신사3,신사,3,3,서울특별시 강남구 도산대로 지하 102,37.516334,127.020114,37.516334,127.020114,서울특별시,강남구,논현1동
13,신논현9,신논현,9,9,서울특별시 강남구 봉은사로 지하 102,37.504598,127.02506,37.504598,127.02506,서울특별시,강남구,역삼1동
14,언주9,언주,9,9,서울특별시 강남구 봉은사로 지하 201,37.507287,127.033868,37.507287,127.033868,서울특별시,강남구,역삼1동
15,삼성중앙9,삼성중앙,9,9,서울특별시 강남구 봉은사로 지하 501,37.513011,127.053282,37.513011,127.053282,서울특별시,강남구,삼성2동
16,봉은사9,봉은사,9,9,서울특별시 강남구 봉은사로 지하 601,37.514219,127.060245,37.514219,127.060245,서울특별시,강남구,삼성1동
17,한티B,한티,B,분당,서울특별시 강남구 선릉로 지하 228,37.496237,127.052873,37.496237,127.052873,서울특별시,강남구,역삼2동
18,선정릉B,선정릉,B,분당,서울특별시 강남구 선릉로 지하 580,37.51098,127.043593,37.51098,127.043593,서울특별시,강남구,논현2동
19,선정릉9,선정릉,9,9,서울특별시 강남구 선릉로 지하 580,37.51098,127.043593,37.51098,127.043593,서울특별시,강남구,논현2동
20,압구정3,압구정,3,3,서울특별시 강남구 압구정로 지하 172,37.527072,127.028461,37.527072,127.028461,서울특별시,강남구,신사동
21,압구정로데오B,압구정로데오,B,분당,서울특별시 강남구 압구정로 지하 402,37.527381,127.040534,37.527381,127.040534,서울특별시,강남구,압구정동
22,일원3,일원,3,3,서울특별시 강남구 일원로 지하 121,37.483681,127.08439,37.483681,127.08439,서울특별시,강남구,일원본동
23,대청3,대청,3,3,서울특별시 강남구 일원로 지하 2,37.493514,127.079532,37.493514,127.079532,서울특별시,강남구,일원2동
24,역삼2,역삼,2,2,서울특별시 강남구 테헤란로 지하 156,37.500622,127.036456,37.500622,127.036456,서울특별시,강남구,역삼1동
25,선릉2,선릉,2,2,서울특별시 강남구 테헤란로 지하 340,37.504503,127.049008,37.504503,127.049008,서울특별시,강남구,역삼2동
26,선릉B,선릉,B,분당,서울특별시 강남구 테헤란로 지하 340,37.504503,127.049008,37.504503,127.049008,서울특별시,강남구,역삼2동
27,삼성2,삼성,2,2,서울특별시 강남구 테헤란로 지하 538,37.508844,127.06316,37.508844,127.06316,서울특별시,강남구,대치2동
28,논현7,논현,7,7,서울특별시 강남구 학동로 지하 102,37.511093,127.021415,37.511093,127.021415,서울특별시,강남구,논현1동
29,학동7,학동,7,7,서울특별시 강남구 학동로 지하 180,37.514229,127.031656,37.514229,127.031656,서울특별시,강남구,논현2동
30,강남구청7,강남구청,7,7,서울특별시 강남구 학동로 지하 346,37.517186,127.04128,37.517186,127.04128,서울특별시,강남구,논현2동
31,강남구청B,강남구청,B,분당,서울특별시 강남구 학동로 지하 346,37.517186,127.04128,37.517186,127.04128,서울특별시,강남구,논현2동
32,청담7,청담,7,7,서울특별시 강남구 학동로 지하 508,37.519365,127.05335,37.519365,127.05335,서울특별시,강남구,삼성1동
33,고덕5,고덕,5,5,서울특별시 강동구 고덕로 지하 253,37.555004,127.154151,37.555004,127.154151,서울특별시,강동구,명일2동
34,상일동5,상일동,5,5,서울특별시 강동구 고덕로 지하 359,37.556712,127.166417,37.556712,127.166417,서울특별시,강동구,상일동
35,둔촌동5,둔촌동,5,5,서울특별시 강동구 양재대로 지하 1369,37.527788,127.136248,37.527788,127.136248,서울특별시,강동구,성내3동
36,길동5,길동,5,5,서울특별시 강동구 양재대로 지하 1480,37.537801,127.140004,37.537801,127.140004,서울특별시,강동구,길동
37,굽은다리5,굽은다리,5,5,서울특별시 강동구 양재대로 지하 1572,37.545477,127.142853,37.54547700000001,127.142853,서울특별시,강동구,천호1동
38,명일5,명일,5,5,서울특별시 강동구 양재대로 지하 1632,37.55137,127.143999,37.55137,127.143999,서울특별시,강동구,명일1동
39,강동구청8,강동구청,8,8,서울특별시 강동구 올림픽로 지하 550,37.530341,127.120508,37.530341,127.120508,서울특별시,강동구,성내1동
40,암사8,암사,8,8,서울특별시 강동구 올림픽로 지하 776,37.55021,127.127562,37.55021,127.127562,서울특별시,강동구,암사2동
41,강동5,강동,5,5,서울특별시 강동구 천호대로 지하 1097,37.535804,127.132481,37.535804,127.132481,서울특별시,강동구,성내2동
42,천호5,천호,5,5,서울특별시 강동구 천호대로 지하 997,37.538397,127.123572,37.538397,127.123572,서울특별시,강동구,성내2동
43,천호8,천호,8,8,서울특별시 강동구 천호대로 지하 997,37.538397,127.123572,37.538397,127.123572,서울특별시,강동구,성내2동
44,미아4,미아,4,4,서울특별시 강북구 도봉로 지하 198,37.62667,127.025983,37.62667,127.025983,서울특별시,강북구,미아동
45,수유4,수유,4,4,서울특별시 강북구 도봉로 지하 338,37.638052,127.025732,37.638052,127.025732,서울특별시,강북구,번1동
46,미아사거리4,미아사거리,4,4,서울특별시 강북구 도봉로 지하 50,37.613292,127.030053,37.613292,127.030053,서울특별시,강북구,송중동
47,솔샘UI,솔샘,UI,우이,서울특별시 강북구 미아동 1353-20,37.620185,127.013627,37.620185,127.013627,서울특별시,강북구,삼각산동
48,삼양사거리UI,삼양사거리,UI,우이,서울특별시 강북구 미아동 745-142,37.621227,127.020517,37.621227,127.020517,서울특별시,강북구,송천동
49,삼양UI,삼양,UI,우이,서울특별시 강북구 미아동 791-4703,37.62673,127.018148,37.62673,127.018148,서울특별시,강북구,삼양동
50,가오리UI,가오리,UI,우이,서울특별시 강북구 수유동 338-47,37.641231,127.016836,37.641231,127.016836,서울특별시,강북구,수유2동
51,화계UI,화계,UI,우이,서울특별시 강북구 수유동 472-691,37.634104,127.01752,37.634104,127.01752,서울특별시,강북구,수유1동
52,북한산우이UI,북한산우이,UI,우이,서울특별시 강북구 우이동 16-20,37.662949,127.012638,37.662949,127.012638,서울특별시,강북구,우이동
53,솔밭공원UI,솔밭공원,UI,우이,서울특별시 강북구 우이동 57-28,37.655841,127.01322,37.655841,127.01322,서울특별시,강북구,우이동
54,419민주묘지UI,419민주묘지,UI,우이,서울특별시 강북구 우이동 72-186,37.649845,127.013566,37.649845,127.013566,서울특별시,강북구,우이동
55,우장산5,우장산,5,5,서울특별시 강서구 강서로 지하 262,37.548768,126.836318,37.548768,126.836318,서울특별시,강서구,발산1동
56,까치산2,까치산,2,2,서울특별시 강서구 강서로 지하 54,37.531768,126.846683,37.531768,126.846683,서울특별시,강서구,화곡1동
57,까치산5,까치산,5,5,서울특별시 강서구 강서로 지하 54,37.531768,126.846683,37.531768,126.846683,서울특별시,강서구,화곡1동
58,개화9,개화,9,9,서울특별시 강서구 개화동로8길 19,37.578608,126.798153,37.578608,126.798153,서울특별시,강서구,방화2동
59,마곡5,마곡,5,5,서울특별시 강서구 공항대로 지하 163,37.560183,126.825448,37.560183,126.825448,서울특별시,강서구,공항동
60,발산5,발산,5,5,서울특별시 강서구 공항대로 지하 267,37.558598,126.837668,37.558598,126.837668,서울특별시,강서구,발산1동
61,송정5,송정,5,5,서울특별시 강서구 공항대로 지하 33,37.561184,126.811973,37.561184,126.811973,서울특별시,강서구,공항동
62,등촌9,등촌,9,9,서울특별시 강서구 공항대로 지하 529,37.550632,126.865689,37.550632,126.865689,서울특별시,양천구,목3동
63,염창9,염창,9,9,서울특별시 강서구 공항대로 지하 631,37.546936,126.874916,37.546936,126.874916,서울특별시,양천구,목2동
64,방화5,방화,5,5,서울특별시 강서구 금낭화로 지하 132,37.577446,126.812741,37.577446,126.812741,서울특별시,강서구,방화3동
65,마곡나루9,마곡나루,9,9,서울특별시 강서구 마곡중앙5로 지하 2,37.567336,126.829497,37.567336,126.829497,서울특별시,강서구,가양1동
66,신방화9,신방화,9,9,서울특별시 강서구 방화대로 지하 301,37.567532,126.816601,37.567532,126.816601,서울특별시,강서구,방화1동
67,공항시장9,공항시장,9,9,서울특별시 강서구 방화동로 지하 30,37.563726,126.810678,37.563726,126.810678,서울특별시,강서구,공항동
68,개화산5,개화산,5,5,서울특별시 강서구 양천로 22,37.572399,126.806171,37.572399,126.806171,서울특별시,강서구,방화2동
69,양천향교9,양천향교,9,9,서울특별시 강서구 양천로 지하 341,37.568381,126.841333,37.568381,126.841333,서울특별시,강서구,가양1동
70,가양9,가양,9,9,서울특별시 강서구 양천로 지하 485,37.561391,126.854456,37.561391,126.854456,서울특별시,강서구,등촌3동
71,증미9,증미,9,9,서울특별시 강서구 양천로 지하 560,37.557402,126.861939,37.557402,126.861939,서울특별시,강서구,등촌1동
72,김포공항5,김포공항,5,5,서울특별시 강서구 하늘길 지하 77,37.562434,126.801058,37.562434,126.801058,서울특별시,강서구,방화2동
73,김포공항A,김포공항,A,공항,서울특별시 강서구 하늘길 지하 77,37.562434,126.801058,37.562434,126.801058,서울특별시,강서구,방화2동
74,김포공항9,김포공항,9,9,서울특별시 강서구 하늘길 지하 77,37.562434,126.801058,37.562434,126.801058,서울특별시,강서구,방화2동
75,화곡5,화곡,5,5,서울특별시 강서구 화곡로 지하 168,37.541513,126.840461,37.541513,126.840461,서울특별시,강서구,화곡1동
76,신림2,신림,2,2,서울특별시 관악구 남부순환로 지하 1614,37.484201,126.929715,37.484201,126.929715,서울특별시,관악구,신림동
77,봉천2,봉천,2,2,서울특별시 관악구 남부순환로 지하 1721,37.482362,126.941892,37.482362,126.941892,서울특별시,관악구,은천동
78,서울대입구2,서울대입구,2,2,서울특별시 관악구 남부순환로 지하 1822,37.481247,126.952739,37.481247,126.952739,서울특별시,관악구,행운동
79,낙성대2,낙성대,2,2,서울특별시 관악구 남부순환로 지하 1928,37.47693,126.963693,37.47693,126.963693,서울특별시,관악구,행운동
80,강변2,강변,2,2,서울특별시 광진구 강변역로 53,37.535095,127.094681,37.535095,127.094681,서울특별시,광진구,구의3동
81,뚝섬유원지7,뚝섬유원지,7,7,서울특별시 광진구 능동로 10,37.53154,127.066704,37.53154,127.066704,서울특별시,광진구,자양3동
82,건대입구7,건대입구,7,7,서울특별시 광진구 능동로 지하 110,37.540693,127.07023,37.540693,127.07023,서울특별시,광진구,화양동
83,어린이대공원7,어린이대공원,7,7,서울특별시 광진구 능동로 지하 210,37.548014,127.074658,37.548014,127.074658,서울특별시,광진구,능동
84,중곡7,중곡,7,7,서울특별시 광진구 능동로 지하 417,37.565923,127.08432,37.565923,127.08432,서울특별시,광진구,중곡3동
85,건대입구2,건대입구,2,2,서울특별시 광진구 아차산로 243,37.540693,127.07023,37.540693,127.07023,서울특별시,광진구,화양동
86,구의2,구의,2,2,서울특별시 광진구 아차산로 384-1,37.537077,127.085916,37.537077,127.085916,서울특별시,광진구,자양2동
87,광나루5,광나루,5,5,서울특별시 광진구 아차산로 지하 571,37.545303,127.10357,37.545303,127.10357,서울특별시,광진구,광장동
88,군자5,군자,5,5,서울특별시 광진구 천호대로 지하 550,37.557121,127.079542,37.557121,127.079542,서울특별시,광진구,능동
89,군자7,군자,7,7,서울특별시 광진구 천호대로 지하 550,37.557121,127.079542,37.557121,127.079542,서울특별시,광진구,능동
90,아차산5,아차산,5,5,서울특별시 광진구 천호대로 지하 657,37.551691,127.089761,37.551691,127.089761,서울특별시,광진구,구의2동
91,오류동1,오류동,1,1,서울특별시 구로구 경인로20길 13,37.494526,126.845365,37.494526,126.845365,서울특별시,구로구,오류2동
92,온수7,온수,7,7,서울특별시 구로구 경인로3길 지하 64,37.492258,126.823388,37.492258,126.823388,서울특별시,구로구,수궁동
93,개봉1,개봉,1,1,서울특별시 구로구 경인로40길 47,37.494594,126.85868,37.494594,126.85868,서울특별시,구로구,개봉1동
94,도림천2,도림천,2,2,서울특별시 구로구 경인로67길 160,37.514287,126.882768,37.514287,126.882768,서울특별시,구로구,신도림동
95,구로1,구로,1,1,서울특별시 구로구 구로중앙로 174,37.503039,126.881966,37.503039,126.881966,서울특별시,구로구,구로5동
96,구일1,구일,1,1,서울특별시 구로구 구일로 133,37.496756,126.870793,37.496756,126.870793,서울특별시,구로구,구로1동
97,남구로7,남구로,7,7,서울특별시 구로구 도림로 지하 7,37.486056,126.887249,37.486056,126.887249,서울특별시,구로구,구로3동
98,대림2,대림,2,2,서울특별시 구로구 도림천로 351,37.49297,126.895801,37.49297,126.895801,서울특별시,영등포구,대림3동
99,구로디지털단지2,구로디지털단지,2,2,서울특별시 구로구 도림천로 477,37.485266,126.901401,37.485266,126.901401,서울특별시,구로구,구로3동
100,온수1,온수,1,1,서울특별시 구로구 부일로 872,37.492258,126.823388,37.492258,126.823388,서울특별시,구로구,수궁동
101,신도림1,신도림,1,1,서울특별시 구로구 새말로 117-21,37.508725,126.891295,37.508725,126.891295,서울특별시,구로구,신도림동
102,신도림2,신도림,2,2,서울특별시 구로구 새말로 지하 117-21,37.508725,126.891295,37.508725,126.891295,서울특별시,구로구,신도림동
103,천왕7,천왕,7,7,서울특별시 구로구 오리로 지하 1154,37.486637,126.838713,37.486637,126.838713,서울특별시,구로구,오류2동
104,독산1,독산,1,1,서울특별시 금천구 벚꽃로 115,37.466613,126.889249,37.466613,126.889249,서울특별시,금천구,가산동
105,가산디지털단지1,가산디지털단지,1,1,서울특별시 금천구 벚꽃로 309,37.481072,126.882343,37.481072,126.882343,서울특별시,금천구,가산동
106,가산디지털단지7,가산디지털단지,7,7,서울특별시 금천구 벚꽃로 309,37.481072,126.882343,37.481072,126.882343,서울특별시,금천구,가산동
107,금천구청1,금천구청,1,1,서울특별시 금천구 시흥대로63길 91,37.455626,126.89398,37.455626,126.89398,서울특별시,금천구,시흥1동
108,공릉7,공릉,7,7,서울특별시 노원구 동일로 지하 1074,37.625742,127.072896,37.625742,127.072896,서울특별시,노원구,공릉1동
109,하계7,하계,7,7,서울특별시 노원구 동일로 지하 1196,37.636352,127.06799,37.636352,127.06799,서울특별시,노원구,하계1동
110,중계7,중계,7,7,서울특별시 노원구 동일로 지하 1308-1,37.644583,127.064303,37.644583,127.064303,서울특별시,노원구,중계2.3동
111,노원7,노원,7,7,서울특별시 노원구 동일로 지하 1409,37.655128,127.061368,37.655128,127.061368,서울특별시,노원구,상계2동
112,마들7,마들,7,7,서울특별시 노원구 동일로 지하 1530-1,37.66494,127.057675,37.66494,127.057675,서울특별시,노원구,상계9동
113,수락산7,수락산,7,7,서울특별시 노원구 동일로 지하 1662,37.67785,127.055315,37.67785,127.055315,서울특별시,노원구,상계1동
114,태릉입구6,태릉입구,6,6,서울특별시 노원구 동일로 지하 992-1,37.617983,127.07512,37.617983,127.07512,서울특별시,노원구,공릉1동
115,태릉입구7,태릉입구,7,7,서울특별시 노원구 동일로 지하 992-1,37.617983,127.07512,37.617983,127.07512,서울특별시,노원구,공릉1동
116,상계4,상계,4,4,서울특별시 노원구 상계로 182,37.660878,127.073572,37.660878,127.073572,서울특별시,노원구,상계5동
117,당고개4,당고개,4,4,서울특별시 노원구 상계로 305,37.670272,127.079066,37.670272,127.079066,서울특별시,노원구,상계3.4동
118,노원4,노원,4,4,서울특별시 노원구 상계로 69-1,37.655128,127.061368,37.655128,127.061368,서울특별시,노원구,상계2동
119,광운대G,광운대,G,경춘,서울특별시 노원구 석계로 98-2,37.623632,127.061835,37.623632,127.061835,서울특별시,노원구,월계1동
120,광운대1,광운대,1,1,서울특별시 노원구 석계로 98-2,37.623632,127.061835,37.623632,127.061835,서울특별시,노원구,월계1동
121,월계1,월계,1,1,서울특별시 노원구 월계로53길 40,37.633212,127.058831,37.633212,127.058831,서울특별시,노원구,월계2동
122,석계1,석계,1,1,서울특별시 노원구 화랑로 341,37.614805,127.065851,37.614805,127.065851,서울특별시,성북구,석관동
123,석계6,석계,6,6,서울특별시 노원구 화랑로 지하 347-1,37.614805,127.065851,37.614805,127.065851,서울특별시,성북구,석관동
124,화랑대6,화랑대,6,6,서울특별시 노원구 화랑로 지하 510,37.620064,127.084689,37.620064,127.084689,서울특별시,노원구,공릉2동
125,녹천1,녹천,1,1,서울특별시 도봉구 덕릉로 376,37.644799,127.051269,37.644799,127.051269,서울특별시,도봉구,창4동
126,도봉산1,도봉산,1,1,서울특별시 도봉구 도봉로 964-33,37.689313,127.046222,37.689313,127.046222,서울특별시,도봉구,도봉2동
127,도봉산7,도봉산,7,7,서울특별시 도봉구 도봉로 964-40,37.689313,127.046222,37.689313,127.046222,서울특별시,도봉구,도봉2동
128,쌍문4,쌍문,4,4,서울특별시 도봉구 도봉로 지하 486-1,37.648627,127.034709,37.648627,127.034709,서울특별시,도봉구,쌍문3동
129,방학1,방학,1,1,서울특별시 도봉구 도봉로150다길 3,37.667503,127.044273,37.667503,127.044273,서울특별시,도봉구,방학1동
130,도봉1,도봉,1,1,서울특별시 도봉구 도봉로170길 2,37.679563,127.045595,37.679563,127.045595,서울특별시,도봉구,도봉2동
131,창동1,창동,1,1,서울특별시 도봉구 마들로11길 77,37.653166,127.047731,37.653166,127.047731,서울특별시,도봉구,창4동
132,창동4,창동,4,4,서울특별시 도봉구 마들로11길 77,37.653166,127.047731,37.653166,127.047731,서울특별시,도봉구,창4동
133,신설동UI,신설동,UI,우이,서울특별시 동대문구 신설동 132-30,37.575297,127.025087,37.575297,127.025087,서울특별시,동대문구,용신동
134,청량리G,청량리,G,경춘,서울특별시 동대문구 왕산로 214,37.580178,127.046835,37.580178,127.046835,서울특별시,동대문구,전농1동
135,청량리K,청량리,K,경의중앙,서울특별시 동대문구 왕산로 214,37.580178,127.046835,37.580178,127.046835,서울특별시,동대문구,전농1동
136,신설동1,신설동,1,1,서울특별시 동대문구 왕산로 지하 1,37.575297,127.025087,37.575297,127.025087,서울특별시,동대문구,용신동
137,신설동2,신설동,2,2,서울특별시 동대문구 왕산로 지하 1,37.575297,127.025087,37.575297,127.025087,서울특별시,동대문구,용신동
138,청량리1,청량리,1,1,서울특별시 동대문구 왕산로 지하 205,37.580178,127.046835,37.580178,127.046835,서울특별시,동대문구,전농1동
139,제기동1,제기동,1,1,서울특별시 동대문구 왕산로 지하 93,37.578103,127.034893,37.57810300000001,127.034893,서울특별시,동대문구,용신동
140,용두2,용두,2,2,서울특별시 동대문구 천호대로 지하 129,37.574028,127.038091,37.57402800000001,127.038091,서울특별시,동대문구,용신동
141,장한평5,장한평,5,5,서울특별시 동대문구 천호대로 지하 405,37.56144,127.064623,37.56144,127.064623,서울특별시,성동구,용답동
142,신이문1,신이문,1,1,서울특별시 동대문구 한천로 472,37.601854,127.067325,37.601854,127.067325,서울특별시,동대문구,이문2동
143,회기K,회기,K,경의중앙,서울특별시 동대문구 회기로 196,37.58946,127.057583,37.58946,127.057583,서울특별시,동대문구,휘경1동
144,회기1,회기,1,1,서울특별시 동대문구 회기로 196,37.58946,127.057583,37.58946,127.057583,서울특별시,동대문구,휘경1동
145,회기G,회기,G,경춘,서울특별시 동대문구 회기로 196,37.58946,127.057583,37.58946,127.057583,서울특별시,동대문구,휘경1동
146,외대앞1,외대앞,1,1,서울특별시 동대문구 휘경로 27,37.596073,127.063549,37.596073,127.063549,서울특별시,동대문구,이문1동
147,사당2,사당,2,2,서울특별시 동작구 남부순환로 지하 2089,37.47653,126.981685,37.47653,126.981685,서울특별시,관악구,남현동
148,노량진1,노량진,1,1,서울특별시 동작구 노량진로 151,37.514219,126.942454,37.514219,126.942454,서울특별시,동작구,노량진1동
149,노량진9,노량진,9,9,서울특별시 동작구 노량진로 지하 130,37.514219,126.942454,37.514219,126.942454,서울특별시,동작구,노량진1동
150,노들9,노들,9,9,서울특별시 동작구 노량진로 지하 238,37.512887,126.953222,37.512887,126.953222,서울특별시,동작구,노량진1동
151,신대방2,신대방,2,2,서울특별시 동작구 대림로 2,37.487462,126.913149,37.487462,126.913149,서울특별시,관악구,신사동
152,총신대입구(이수)4,총신대입구(이수),4,4,서울특별시 동작구 동작대로 지하 117,37.486263,126.981989,37.486263,126.981989,서울특별시,동작구,사당2동
153,사당4,사당,4,4,서울특별시 동작구 동작대로 지하 3,37.47653,126.981685,37.47653,126.981685,서울특별시,관악구,남현동
154,남성7,남성,7,7,서울특별시 동작구 사당로 지하 218,37.484596,126.971251,37.484596,126.971251,서울특별시,동작구,사당4동
155,총신대입구(이수)7,총신대입구(이수),7,7,서울특별시 동작구 사당로 지하 310,37.486263,126.981989,37.486263,126.981989,서울특별시,동작구,사당2동
156,장승배기7,장승배기,7,7,서울특별시 동작구 상도로 지하 188,37.504898,126.93915,37.504898,126.93915,서울특별시,동작구,상도2동
157,보라매7,보라매,7,7,서울특별시 동작구 상도로 지하 2,37.499872,126.920428,37.499872,126.920428,서울특별시,동작구,대방동
158,상도7,상도,7,7,서울특별시 동작구 상도로 지하 272,37.502834,126.94791,37.502834,126.94791,서울특별시,동작구,상도1동
159,숭실대입구7,숭실대입구,7,7,서울특별시 동작구 상도로 지하 378,37.496029,126.953822,37.496029,126.953822,서울특별시,동작구,상도1동
160,신대방삼거리7,신대방삼거리,7,7,서울특별시 동작구 상도로 지하 76,37.499701,126.928276,37.499701,126.928276,서울특별시,동작구,대방동
161,동작4,동작,4,4,서울특별시 동작구 현충로 257,37.502971,126.979306,37.502971,126.979306,서울특별시,동작구,사당2동
162,동작9,동작,9,9,서울특별시 동작구 현충로 지하 220,37.502971,126.979306,37.502971,126.979306,서울특별시,동작구,사당2동
163,흑석9,흑석,9,9,서울특별시 동작구 현충로 지하 90,37.50877,126.963708,37.50877,126.963708,서울특별시,동작구,흑석동
164,대흥6,대흥,6,6,서울특별시 마포구 대흥로 지하 85,37.547771,126.942069,37.547771,126.942069,서울특별시,마포구,대흥동
165,광흥창6,광흥창,6,6,서울특별시 마포구 독막로 지하 165,37.547456,126.931993,37.547456,126.931993,서울특별시,마포구,서강동
166,상수6,상수,6,6,서울특별시 마포구 독막로 지하 85,37.547716,126.922852,37.54771599999999,126.922852,서울특별시,마포구,서강동
167,공덕5,공덕,5,5,서울특별시 마포구 마포대로 지하 100,37.544018,126.951592,37.544018,126.951592,서울특별시,마포구,공덕동
168,애오개5,애오개,5,5,서울특별시 마포구 마포대로 지하 210,37.553736,126.95682,37.553736,126.95682,서울특별시,마포구,아현동
169,마포5,마포,5,5,서울특별시 마포구 마포대로 지하 33,37.539574,126.945932,37.539574,126.945932,서울특별시,마포구,도화동
170,공덕K,공덕,K,경의중앙,서울특별시 마포구 마포대로 지하 92,37.544018,126.951592,37.544018,126.951592,서울특별시,마포구,공덕동
171,공덕A,공덕,A,공항,서울특별시 마포구 마포대로 지하 92,37.544018,126.951592,37.544018,126.951592,서울특별시,마포구,공덕동
172,공덕6,공덕,6,6,서울특별시 마포구 백범로 지하 200,37.544018,126.951592,37.544018,126.951592,서울특별시,마포구,공덕동
173,서강대K,서강대,K,경의중앙,서울특별시 마포구 서강로 지하 118,37.551881,126.935711,37.551881,126.935711,서울특별시,마포구,대흥동
174,디지털미디어시티A,디지털미디어시티,A,공항,서울특별시 마포구 성암로 지하 184,37.576646,126.900984,37.576646,126.900984,서울특별시,마포구,상암동
175,이대2,이대,2,2,서울특별시 마포구 신촌로 지하 180,37.556733,126.946013,37.556733,126.946013,서울특별시,마포구,대흥동
176,아현2,아현,2,2,서울특별시 마포구 신촌로 지하 270,37.557345,126.956141,37.557345,126.956141,서울특별시,마포구,아현동
177,신촌2,신촌,2,2,서울특별시 마포구 신촌로 지하 90,37.555134,126.936893,37.555134,126.936893,서울특별시,서대문구,신촌동
178,홍대입구2,홍대입구,2,2,서울특별시 마포구 양화로 지하 160,37.557192,126.925381,37.557192,126.925381,서울특별시,마포구,서교동
179,홍대입구A,홍대입구,A,공항,서울특별시 마포구 양화로 지하 188,37.557192,126.925381,37.557192,126.925381,서울특별시,마포구,서교동
180,홍대입구K,홍대입구,K,경의중앙,서울특별시 마포구 양화로 지하 188,37.557192,126.925381,37.557192,126.925381,서울특별시,마포구,서교동
181,합정6,합정,6,6,서울특별시 마포구 양화로 지하 45,37.549463,126.913739,37.549463,126.913739,서울특별시,마포구,합정동
182,합정2,합정,2,2,서울특별시 마포구 양화로 지하 55,37.549463,126.913739,37.549463,126.913739,서울특별시,마포구,합정동
183,마포구청6,마포구청,6,6,서울특별시 마포구 월드컵로 지하 190,37.563515,126.903343,37.563515,126.903343,서울특별시,마포구,성산2동
184,월드컵경기장6,월드컵경기장,6,6,서울특별시 마포구 월드컵로 지하 240,37.569532,126.899298,37.569532,126.899298,서울특별시,마포구,성산2동
185,망원6,망원,6,6,서울특별시 마포구 월드컵로 지하 77,37.556094,126.910052,37.556094,126.910052,서울특별시,마포구,서교동
186,충정로2,충정로,2,2,서울특별시 서대문구 서소문로 지하 17,37.559973,126.963672,37.559973,126.963672,서울특별시,서대문구,충현동
187,가좌K,가좌,K,경의중앙,서울특별시 서대문구 수색로 27,37.568491,126.915487,37.56849099999999,126.915487,서울특별시,서대문구,남가좌1동
188,신촌(경의중앙선)K,신촌(경의중앙선),K,경의중앙,서울특별시 서대문구 신촌역로 30,37.559783,126.942319,37.559783,126.942319,서울특별시,서대문구,신촌동
189,충정로5,충정로,5,5,서울특별시 서대문구 충정로 지하 28-1,37.559973,126.963672,37.559973,126.963672,서울특별시,서대문구,충현동
190,독립문3,독립문,3,3,서울특별시 서대문구 통일로 지하 247,37.574571,126.957748,37.574571,126.957748,서울특별시,서대문구,천연동
191,무악재3,무악재,3,3,서울특별시 서대문구 통일로 지하 361,37.582299,126.950291,37.582299,126.950291,서울특별시,서대문구,홍제2동
192,홍제3,홍제,3,3,서울특별시 서대문구 통일로 지하 440-1,37.589066,126.943736,37.589066,126.943736,서울특별시,서대문구,홍제3동
193,남태령4,남태령,4,4,서울특별시 서초구 과천대로 지하 816,37.463873,126.989134,37.463873,126.989134,서울특별시,서초구,방배2동
194,양재3,양재,3,3,서울특별시 서초구 남부순환로 지하 2585,37.484147,127.034631,37.484147,127.034631,서울특별시,서초구,양재1동
195,양재S,양재,S,신분당,서울특별시 서초구 남부순환로 지하 2585,37.484147,127.034631,37.484147,127.034631,서울특별시,서초구,양재1동
196,양재시민의숲S,양재시민의숲,S,신분당,서울특별시 서초구 매헌로 지하 116,37.470023,127.03842,37.470023,127.03842,서울특별시,서초구,양재2동
197,방배2,방배,2,2,서울특별시 서초구 방배로 지하 80,37.481426,126.997596,37.481426,126.997596,서울특별시,서초구,방배3동
198,사평9,사평,9,9,서울특별시 서초구 사평대로 지하 285,37.504206,127.015259,37.504206,127.015259,서울특별시,서초구,반포1동
199,내방7,내방,7,7,서울특별시 서초구 서초대로 지하 103,37.487618,126.993513,37.487618,126.993513,서울특별시,서초구,방배1동
200,서초2,서초,2,2,서울특별시 서초구 서초대로 지하 233,37.491897,127.007917,37.49189699999999,127.007917,서울특별시,서초구,서초3동
201,교대3,교대,3,3,서울특별시 서초구 서초대로 지하 294,37.493415,127.01408,37.493415,127.01408,서울특별시,서초구,서초1동
202,교대2,교대,2,2,서울특별시 서초구 서초대로 지하 294,37.493415,127.01408,37.493415,127.01408,서울특별시,서초구,서초1동
203,남부터미널3,남부터미널,3,3,서울특별시 서초구 서초중앙로 지하 31,37.485013,127.016189,37.485013,127.016189,서울특별시,서초구,서초3동
204,신반포9,신반포,9,9,서울특별시 서초구 신반포로 지하 105,37.503415,126.995925,37.503415,126.995925,서울특별시,서초구,반포2동
205,구반포9,구반포,9,9,서울특별시 서초구 신반포로 지하 17,37.501364,126.987332,37.501364,126.987332,서울특별시,서초구,반포본동
206,고속터미널3,고속터미널,3,3,서울특별시 서초구 신반포로 지하 188,37.50481,127.004943,37.50481,127.004943,서울특별시,서초구,반포4동
207,고속터미널7,고속터미널,7,7,서울특별시 서초구 신반포로 지하 188,37.50481,127.004943,37.50481,127.004943,서울특별시,서초구,반포4동
208,고속터미널9,고속터미널,9,9,서울특별시 서초구 신반포로 지하 188,37.50481,127.004943,37.50481,127.004943,서울특별시,서초구,반포4동
209,반포7,반포,7,7,서울특별시 서초구 신반포로 지하 241,37.508178,127.011727,37.508178,127.011727,서울특별시,서초구,반포1동
210,잠원3,잠원,3,3,서울특별시 서초구 잠원로4길 지하 46,37.512759,127.01122,37.512759,127.01122,서울특별시,서초구,잠원동
211,청계산입구S,청계산입구,S,신분당,서울특별시 서초구 청계산로 지하 179,37.447211,127.055664,37.447211,127.055664,서울특별시,서초구,내곡동
212,응봉K,응봉,K,경의중앙,서울특별시 성동구 고산자로 123,37.549946,127.034538,37.54994600000001,127.034538,서울특별시,성동구,응봉동
213,신금호5,신금호,5,5,서울특별시 성동구 금호로 지하 154,37.554548,127.020331,37.554548,127.020331,서울특별시,성동구,금호1가동
214,옥수K,옥수,K,경의중앙,서울특별시 성동구 동호로 21,37.540685,127.017965,37.540685,127.017965,서울특별시,성동구,옥수동
215,금호3,금호,3,3,서울특별시 성동구 동호로 지하 104,37.548034,127.015872,37.548034,127.015872,서울특별시,성동구,금호4가동
216,옥수3,옥수,3,3,서울특별시 성동구 동호로 지하 21,37.540685,127.017965,37.540685,127.017965,서울특별시,성동구,옥수동
217,마장5,마장,5,5,서울특별시 성동구 마장로 지하 296,37.5661,127.042973,37.5661,127.042973,서울특별시,성동구,마장동
218,성수2,성수,2,2,서울특별시 성동구 아차산로 100,37.544581,127.055961,37.544581,127.055961,서울특별시,성동구,성수2가3동
219,뚝섬2,뚝섬,2,2,서울특별시 성동구 아차산로 18,37.547184,127.047367,37.547184,127.047367,서울특별시,성동구,성수1가2동
220,왕십리B,왕십리,B,분당,서울특별시 성동구 완십리광장로 17,37.561533,127.037732,37.561533,127.037732,서울특별시,성동구,행당1동
221,왕십리K,왕십리,K,경의중앙,서울특별시 성동구 왕십리광장로 17,37.561533,127.037732,37.561533,127.037732,서울특별시,성동구,행당1동
222,한양대2,한양대,2,2,서울특별시 성동구 왕십리로 206,37.555273,127.043655,37.555273,127.043655,서울특별시,성동구,사근동
223,왕십리5,왕십리,5,5,서울특별시 성동구 왕십리로 지하 300,37.561533,127.037732,37.561533,127.037732,서울특별시,성동구,행당1동
224,왕십리2,왕십리,2,2,서울특별시 성동구 왕십리로 지하 300,37.561533,127.037732,37.561533,127.037732,서울특별시,성동구,행당1동
225,상왕십리2,상왕십리,2,2,서울특별시 성동구 왕십리로 지하 374,37.564354,127.029354,37.56435399999999,127.029354,서울특별시,성동구,왕십리2동
226,서울숲B,서울숲,B,분당,서울특별시 성동구 왕십리로 지하 77,37.543617,127.044707,37.543617,127.044707,서울특별시,성동구,성수1가1동
227,용답2,용답,2,2,서울특별시 성동구 용답길 86,37.561904,127.050899,37.561904,127.050899,서울특별시,성동구,사근동
228,신답2,신답,2,2,서울특별시 성동구 천호대로 232,37.57004,127.046481,37.57004000000001,127.046481,서울특별시,성동구,용답동
229,답십리5,답십리,5,5,서울특별시 성동구 천호대로 지하 300,37.566747,127.052704,37.566747,127.052704,서울특별시,성동구,용답동
230,행당5,행당,5,5,서울특별시 성동구 행당로 지하 89,37.557322,127.029476,37.557322,127.029476,서울특별시,성동구,행당2동
231,성신여대입구UI,성신여대입구,UI,우이,서울특별시 성북구 동선동1가 101-8,37.592624,127.016403,37.592624,127.016403,서울특별시,성북구,삼선동
232,성신여대입구4,성신여대입구,4,4,서울특별시 성북구 동소문로 지하 102,37.592624,127.016403,37.592624,127.016403,서울특별시,성북구,삼선동
233,길음4,길음,4,4,서울특별시 성북구 동소문로 지하 248,37.603407,127.025053,37.603407,127.025053,서울특별시,성북구,길음1동
234,보문UI,보문,UI,우이,서울특별시 성북구 보문동2가 91-7,37.585286,127.019381,37.585286,127.019381,서울특별시,성북구,보문동
235,보문6,보문,6,6,서울특별시 성북구 보문로 지하 116,37.585286,127.019381,37.585286,127.019381,서울특별시,성북구,보문동
236,한성대입구4,한성대입구,4,4,서울특별시 성북구 삼선교로 지하 1,37.588458,127.006221,37.588458,127.006221,서울특별시,성북구,삼선동
237,월곡6,월곡,6,6,서울특별시 성북구 월곡로 지하 107,37.601948,127.041518,37.601948,127.041518,서울특별시,성북구,월곡2동
238,안암6,안암,6,6,서울특별시 성북구 인촌로 지하 89,37.586272,127.029005,37.58627199999999,127.029005,서울특별시,성북구,안암동
239,북한산보국문UI,북한산보국문,UI,우이,서울특별시 성북구 정릉동 286-19,37.611711,127.008405,37.611711,127.008405,서울특별시,성북구,정릉4동
240,정릉UI,정릉,UI,우이,서울특별시 성북구 정릉동 966-330,37.603107,127.013324,37.603107,127.013324,서울특별시,성북구,정릉1동
241,고려대6,고려대,6,6,서울특별시 성북구 종암로 지하 1,37.590508,127.036296,37.590508,127.036296,서울특별시,동대문구,제기동
242,상월곡6,상월곡,6,6,서울특별시 성북구 화랑로 지하 157,37.606377,127.048491,37.606377,127.048491,서울특별시,성북구,월곡2동
243,돌곶이6,돌곶이,6,6,서울특별시 성북구 화랑로 지하 243,37.610537,127.056431,37.610537,127.056431,서울특별시,성북구,장위2동
244,마천5,마천,5,5,서울특별시 송파구 마천로57길 지하 7,37.49499,127.152781,37.49499,127.152781,서울특별시,송파구,마천1동
245,문정8,문정,8,8,서울특별시 송파구 송파대로 지하 179,37.485855,127.1225,37.485855,127.1225,서울특별시,송파구,문정2동
246,가락시장3,가락시장,3,3,서울특별시 송파구 송파대로 지하 257,37.492522,127.118234,37.49252199999999,127.118234,서울특별시,송파구,가락1동
247,가락시장8,가락시장,8,8,서울특별시 송파구 송파대로 지하 257,37.492522,127.118234,37.49252199999999,127.118234,서울특별시,송파구,가락1동
248,송파8,송파,8,8,서울특별시 송파구 송파대로 지하 354,37.499703,127.112183,37.499703,127.112183,서울특별시,송파구,가락1동
249,석촌8,석촌,8,8,서울특별시 송파구 송파대로 지하 439,37.505431,127.106979,37.505431,127.106979,서울특별시,송파구,석촌동
250,복정B,복정,B,분당,서울특별시 송파구 송파대로 지하 6,37.470047,127.126662,37.47004699999999,127.126662,서울특별시,송파구,문정2동
251,복정8,복정,8,8,서울특별시 송파구 송파대로 지하 6,37.470047,127.126662,37.47004699999999,127.126662,서울특별시,송파구,문정2동
252,장지8,장지,8,8,서울특별시 송파구 송파대로 지하 82,37.478703,127.126191,37.478703,127.126191,서울특별시,송파구,문정2동
253,방이5,방이,5,5,서울특별시 송파구 양재대로 지하 1127,37.508857,127.126133,37.508857,127.126133,서울특별시,송파구,방이1동
254,올림픽공원5,올림픽공원,5,5,서울특별시 송파구 양재대로 지하 1233,37.516078,127.130848,37.516078,127.130848,서울특별시,송파구,오륜동
255,잠실나루2,잠실나루,2,2,서울특별시 송파구 오금로 20,37.520733,127.10379,37.520733,127.10379,서울특별시,송파구,잠실4동
256,오금3,오금,3,3,서울특별시 송파구 오금로 지하 321,37.502162,127.128111,37.502162,127.128111,서울특별시,송파구,오금동
257,오금5,오금,5,5,서울특별시 송파구 오금로 지하 321,37.502162,127.128111,37.502162,127.128111,서울특별시,송파구,오금동
258,개롱5,개롱,5,5,서울특별시 송파구 오금로 지하 402,37.498079,127.13482,37.498079,127.13482,서울특별시,송파구,가락2동
259,거여5,거여,5,5,서울특별시 송파구 오금로 지하 499,37.493105,127.14415,37.493105,127.14415,서울특별시,송파구,거여1동
260,잠실8,잠실,8,8,서울특별시 송파구 올림픽로 305,37.51395,127.102234,37.51395,127.102234,서울특별시,송파구,잠실6동
261,잠실새내2,잠실새내,2,2,서울특별시 송파구 올림픽로 지하 140,37.511687,127.086162,37.511687,127.086162,서울특별시,송파구,잠실2동
262,종합운동장9,종합운동장,9,9,서울특별시 송파구 올림픽로 지하 23,37.510997,127.073642,37.510997,127.073642,서울특별시,송파구,잠실7동
263,종합운동장2,종합운동장,2,2,서울특별시 송파구 올림픽로 지하 23,37.510997,127.073642,37.510997,127.073642,서울특별시,송파구,잠실7동
264,잠실2,잠실,2,2,서울특별시 송파구 올림픽로 지하 265,37.51395,127.102234,37.51395,127.102234,서울특별시,송파구,잠실6동
265,몽촌토성8,몽촌토성,8,8,서울특별시 송파구 올림픽로 지하 383,37.517409,127.112359,37.517409,127.112359,서울특별시,송파구,방이2동
266,경찰병원3,경찰병원,3,3,서울특별시 송파구 중대로 지하 149,37.495918,127.12454,37.495918,127.12454,서울특별시,송파구,가락2동
267,양천구청2,양천구청,2,2,서울특별시 양천구 목동로3길 지하 33,37.512398,126.865819,37.512398,126.865819,서울특별시,양천구,신정7동
268,신목동9,신목동,9,9,서울특별시 양천구 목동중앙로 지하 217,37.544277,126.88308,37.544277,126.88308,서울특별시,양천구,목5동
269,신정5,신정,5,5,서울특별시 양천구 오목로 지하 179,37.524997,126.856191,37.524997,126.856191,서울특별시,양천구,신정4동
270,목동5,목동,5,5,서울특별시 양천구 오목로 지하 245,37.526065,126.864931,37.526065,126.864931,서울특별시,양천구,목1동
271,오목교5,오목교,5,5,서울특별시 양천구 오목로 지하 342,37.524496,126.875181,37.524496,126.875181,서울특별시,양천구,목1동
272,신정네거리2,신정네거리,2,2,서울특별시 양천구 중앙로 지하 261,37.520074,126.852912,37.520074,126.852912,서울특별시,양천구,신정3동
273,영등포1,영등포,1,1,서울특별시 영등포구 경인로 846,37.515504,126.907628,37.515504,126.907628,서울특별시,영등포구,영등포본동
274,신길5,신길,5,5,서울특별시 영등포구 경인로114가길 지하 9,37.517122,126.917169,37.517122,126.917169,서울특별시,영등포구,신길1동
275,국회의사당9,국회의사당,9,9,서울특별시 영등포구 국회대로 지하 758,37.528105,126.917874,37.528105,126.917874,서울특별시,영등포구,여의동
276,당산2,당산,2,2,서울특별시 영등포구 당산로 229,37.53438,126.902281,37.53438,126.902281,서울특별시,영등포구,당산2동
277,당산9,당산,9,9,서울특별시 영등포구 당산로 229,37.53438,126.902281,37.53438,126.902281,서울특별시,영등포구,당산2동
278,영등포구청2,영등포구청,2,2,서울특별시 영등포구 당산로 지하 121,37.52497,126.895951,37.52497,126.895951,서울특별시,영등포구,당산1동
279,문래2,문래,2,2,서울특별시 영등포구 당산로 지하 28,37.517933,126.89476,37.517933,126.89476,서울특별시,영등포구,문래동
280,대림7,대림,7,7,서울특별시 영등포구 도림로 지하 137,37.49297,126.895801,37.49297,126.895801,서울특별시,영등포구,대림3동
281,신풍7,신풍,7,7,서울특별시 영등포구 신풍로 지하 27,37.50008,126.90993,37.50008,126.90993,서울특별시,영등포구,신길6동
282,영등포구청5,영등포구청,5,5,서울특별시 영등포구 양산로 지하 116,37.52497,126.895951,37.52497,126.895951,서울특별시,영등포구,당산1동
283,영등포시장5,영등포시장,5,5,서울특별시 영등포구 양산로 지하 200,37.522669,126.905139,37.522669,126.905139,서울특별시,영등포구,영등포동
284,양평5,양평,5,5,서울특별시 영등포구 양산로 지하 21,37.525648,126.885778,37.525648,126.885778,서울특별시,영등포구,양평1동
285,선유도9,선유도,9,9,서울특별시 영등포구 양평로 지하 124,37.53802,126.893525,37.53802,126.893525,서울특별시,영등포구,양평2동
286,여의도5,여의도,5,5,서울특별시 영등포구 여의나루로 지하 40,37.521624,126.924191,37.521624,126.924191,서울특별시,영등포구,여의동
287,대방1,대방,1,1,서울특별시 영등포구 여의대방로 300,37.513342,126.926382,37.513342,126.926382,서울특별시,영등포구,신길7동
288,여의나루5,여의나루,5,5,서울특별시 영등포구 여의동로 지하 343,37.527098,126.932901,37.527098,126.932901,서울특별시,영등포구,여의동
289,신길1,신길,1,1,서울특별시 영등포구 영등포로 327,37.517122,126.917169,37.517122,126.917169,서울특별시,영등포구,신길1동
290,여의도9,여의도,9,9,서울특별시 영등포구 의사당대로 지하 101,37.521624,126.924191,37.521624,126.924191,서울특별시,영등포구,여의동
291,샛강9,샛강,9,9,서울특별시 영등포구 의사당대로 지하 166,37.517274,126.928422,37.517274,126.928422,서울특별시,영등포구,여의동
292,녹사평6,녹사평,6,6,서울특별시 용산구 녹사평대로 지하 195,37.534675,126.986695,37.534675,126.986695,서울특별시,용산구,용산2가동
293,한남K,한남,K,경의중앙,서울특별시 용산구 독서당로6길 12-13,37.52943,127.009169,37.52943,127.009169,서울특별시,용산구,한남동
294,효창공원앞6,효창공원앞,6,6,서울특별시 용산구 백범로 지하 287,37.539261,126.961351,37.539261,126.961351,서울특별시,용산구,효창동
295,서빙고K,서빙고,K,경의중앙,서울특별시 용산구 서빙고로 238,37.519594,126.988537,37.519594,126.988537,서울특별시,용산구,서빙고동
296,이촌4,이촌,4,4,서울특별시 용산구 서빙고로 지하 83,37.522272,126.974345,37.52227199999999,126.974345,서울특별시,용산구,한강로동
297,효창공원앞K,효창공원앞,K,경의중앙,서울특별시 용산구 용문동 5-157,37.539261,126.961351,37.539261,126.961351,서울특별시,용산구,효창동
298,이촌K,이촌,K,경의중앙,서울특별시 용산구 이촌로71길 42,37.522272,126.974345,37.52227199999999,126.974345,서울특별시,용산구,한강로동
299,이태원6,이태원,6,6,서울특별시 용산구 이태원로 지하 177,37.534488,126.994302,37.534488,126.994302,서울특별시,용산구,이태원1동
300,한강진6,한강진,6,6,서울특별시 용산구 이태원로 지하 287,37.539631,127.001725,37.539631,127.001725,서울특별시,용산구,한남동
301,서울A,서울,A,공항,서울특별시 용산구 청파로 378,37.554648,126.972559,37.554648,126.972559,서울특별시,중구,회현동
302,서울(경의중앙선)K,서울(경의중앙선),K,경의중앙,서울특별시 용산구 한강대로 405,37.556328,126.969522,37.556328,126.969522,서울특별시,중구,회현동
303,신용산4,신용산,4,4,서울특별시 용산구 한강대로 지하 112,37.52917,126.967894,37.52917,126.967894,서울특별시,용산구,한강로동
304,삼각지4,삼각지,4,4,서울특별시 용산구 한강대로 지하 180,37.534777,126.97311,37.53477700000001,126.97311,서울특별시,용산구,한강로동
305,삼각지6,삼각지,6,6,서울특별시 용산구 한강대로 지하 185,37.534777,126.97311,37.53477700000001,126.97311,서울특별시,용산구,한강로동
306,숙대입구4,숙대입구,4,4,서울특별시 용산구 한강대로 지하 306,37.54456,126.972106,37.54456,126.972106,서울특별시,용산구,남영동
307,서울4,서울,4,4,서울특별시 용산구 한강대로 지하 392,37.554648,126.972559,37.554648,126.972559,서울특별시,중구,회현동
308,용산1,용산,1,1,서울특별시 용산구 한강대로23길 55,37.529849,126.964561,37.529849,126.964561,서울특별시,용산구,한강로동
309,용산K,용산,K,경의중앙,서울특별시 용산구 한강대로23길 55,37.529849,126.964561,37.529849,126.964561,서울특별시,용산구,한강로동
310,남영1,남영,1,1,서울특별시 용산구 한강대로77길 25,37.541021,126.9713,37.541021,126.9713,서울특별시,용산구,남영동
311,독바위6,독바위,6,6,서울특별시 은평구 불광로 지하 129-1,37.618456,126.933031,37.618456,126.933031,서울특별시,은평구,불광1동
312,역촌6,역촌,6,6,서울특별시 은평구 서오릉로 지하 63,37.606021,126.922744,37.60602100000001,126.922744,서울특별시,은평구,녹번동
313,디지털미디어시티K,디지털미디어시티,K,경의중앙,서울특별시 은평구 수색로 193,37.576646,126.900984,37.576646,126.900984,서울특별시,마포구,상암동
314,수색K,수색,K,경의중앙,서울특별시 은평구 수색로 261-1,37.580842,126.895611,37.580842,126.895611,서울특별시,은평구,수색동
315,디지털미디어시티6,디지털미디어시티,6,6,서울특별시 은평구 수색로 지하 175,37.576646,126.900984,37.576646,126.900984,서울특별시,마포구,상암동
316,구산6,구산,6,6,서울특별시 은평구 연서로 지하 137-1,37.611377,126.91727,37.611377,126.91727,서울특별시,은평구,갈현2동
317,증산6,증산,6,6,서울특별시 은평구 증산로 지하 306,37.583876,126.909645,37.583876,126.909645,서울특별시,은평구,증산동
318,새절6,새절,6,6,서울특별시 은평구 증산로 지하 400,37.591148,126.913629,37.591148,126.913629,서울특별시,은평구,신사2동
319,응암6,응암,6,6,서울특별시 은평구 증산로 지하 477,37.598605,126.915577,37.598605,126.915577,서울특별시,은평구,신사1동
320,구파발3,구파발,3,3,서울특별시 은평구 진관2로 지하 15-25,37.636763,126.918821,37.636763,126.918821,서울특별시,은평구,진관동
321,녹번3,녹번,3,3,서울특별시 은평구 통일로 지하 602-1,37.600927,126.935756,37.600927,126.935756,서울특별시,은평구,녹번동
322,불광3,불광,3,3,서울특별시 은평구 통일로 지하 723-1,37.610469,126.929887,37.610469,126.929887,서울특별시,은평구,대조동
323,불광6,불광,6,6,서울특별시 은평구 통일로 지하 723-1,37.610469,126.929887,37.610469,126.929887,서울특별시,은평구,대조동
324,연신내3,연신내,3,3,서울특별시 은평구 통일로 지하 849,37.619001,126.921008,37.619001,126.921008,서울특별시,은평구,갈현1동
325,연신내6,연신내,6,6,서울특별시 은평구 통일로 지하 849,37.619001,126.921008,37.619001,126.921008,서울특별시,은평구,갈현1동
326,혜화4,혜화,4,4,서울특별시 종로구 대학로 지하 120,37.582336,127.001844,37.582336,127.001844,서울특별시,종로구,이화동
327,종로3가3,종로3가,3,3,서울특별시 종로구 돈화문로 지하 30,37.571607,126.991806,37.571607,126.991806,서울특별시,종로구,종로1.2.3.4가동
328,종로3가5,종로3가,5,5,서울특별시 종로구 돈화문로11길 지하 26,37.571607,126.991806,37.571607,126.991806,서울특별시,종로구,종로1.2.3.4가동
329,경복궁3,경복궁,3,3,서울특별시 종로구 사직로 지하 130,37.575762,126.97353,37.575762,126.97353,서울특별시,종로구,사직동
330,광화문5,광화문,5,5,서울특별시 종로구 세종대로 지하 172,37.571026,126.976669,37.571026,126.976669,서울특별시,종로구,사직동
331,동대문4,동대문,4,4,서울특별시 종로구 율곡로 지하 308,37.57142,127.009745,37.57142,127.009745,서울특별시,종로구,종로5.6가동
332,안국3,안국,3,3,서울특별시 종로구 율곡로 지하 62,37.576477,126.985443,37.576477,126.985443,서울특별시,종로구,종로1.2.3.4가동
333,동묘앞1,동묘앞,1,1,서울특별시 종로구 종로 359,37.572627,127.016429,37.572627,127.016429,서울특별시,종로구,숭인2동
334,종로3가1,종로3가,1,1,서울특별시 종로구 종로 지하 129,37.571607,126.991806,37.571607,126.991806,서울특별시,종로구,종로1.2.3.4가동
335,종로5가1,종로5가,1,1,서울특별시 종로구 종로 지하 216,37.570926,127.001849,37.570926,127.001849,서울특별시,종로구,종로5.6가동
336,동대문1,동대문,1,1,서울특별시 종로구 종로 지하 302,37.57142,127.009745,37.57142,127.009745,서울특별시,종로구,종로5.6가동
337,종각1,종각,1,1,서울특별시 종로구 종로 지하 55,37.570161,126.982923,37.570161,126.982923,서울특별시,종로구,종로1.2.3.4가동
338,창신6,창신,6,6,서울특별시 종로구 지봉로 지하 112,37.579661,127.015241,37.579661,127.015241,서울특별시,종로구,창신3동
339,동묘앞6,동묘앞,6,6,서울특별시 종로구 지봉로 지하 24,37.572627,127.016429,37.572627,127.016429,서울특별시,종로구,숭인2동
340,서대문5,서대문,5,5,서울특별시 종로구 통일로 지하 126,37.565773,126.966641,37.565773,126.966641,서울특별시,서대문구,충현동
341,약수6,약수,6,6,서울특별시 중구 다산로 지하 115,37.55434,127.010655,37.55434,127.010655,서울특별시,중구,약수동
342,약수3,약수,3,3,서울특별시 중구 다산로 지하 122,37.55434,127.010655,37.55434,127.010655,서울특별시,중구,약수동
343,신당6,신당,6,6,서울특별시 중구 다산로 지하 260,37.565972,127.01782,37.565972,127.01782,서울특별시,중구,신당동
344,버티고개6,버티고개,6,6,서울특별시 중구 다산로 지하 38,37.548013,127.007055,37.548013,127.007055,서울특별시,중구,약수동
345,동대입구3,동대입구,3,3,서울특별시 중구 동호로 지하 256,37.559052,127.005602,37.559052,127.005602,서울특별시,중구,장충동
346,동대문역사문화공원5,동대문역사문화공원,5,5,서울특별시 중구 마른내로 지하 162,37.565138,127.007896,37.565138,127.007896,서울특별시,중구,광희동
347,시청2,시청,2,2,서울특별시 중구 서소문로 지하 127,37.564718,126.977108,37.564718,126.977108,서울특별시,중구,소공동
348,시청1,시청,1,1,서울특별시 중구 세종대로 지하 101,37.564718,126.977108,37.564718,126.977108,서울특별시,중구,소공동
349,서울1,서울,1,1,서울특별시 중구 세종대로 지하 2,37.554648,126.972559,37.554648,126.972559,서울특별시,중구,회현동
350,을지로3가2,을지로3가,2,2,서울특별시 중구 을지로 지하 106,37.566295,126.99191,37.566295,126.99191,서울특별시,중구,을지로동
351,을지로3가3,을지로3가,3,3,서울특별시 중구 을지로 지하 129,37.566295,126.99191,37.566295,126.99191,서울특별시,중구,을지로동
352,을지로4가2,을지로4가,2,2,서울특별시 중구 을지로 지하 178,37.566941,126.998079,37.566941,126.998079,서울특별시,중구,을지로동
353,동대문역사문화공원2,동대문역사문화공원,2,2,서울특별시 중구 을지로 지하 279,37.565138,127.007896,37.565138,127.007896,서울특별시,중구,광희동
354,을지로입구2,을지로입구,2,2,서울특별시 중구 을지로 지하 42,37.566014,126.982618,37.566014,126.982618,서울특별시,중구,명동
355,동대문역사문화공원4,동대문역사문화공원,4,4,서울특별시 중구 장충단로 지하 230,37.565138,127.007896,37.565138,127.007896,서울특별시,중구,광희동
356,을지로4가5,을지로4가,5,5,서울특별시 중구 창경궁로 지하 51,37.566941,126.998079,37.566941,126.998079,서울특별시,중구,을지로동
357,청구5,청구,5,5,서울특별시 중구 청구로 지하 77,37.560245,127.013828,37.560245,127.013828,서울특별시,중구,동화동
358,청구6,청구,6,6,서울특별시 중구 청구로 지하 77,37.560245,127.013828,37.560245,127.013828,서울특별시,중구,동화동
359,명동4,명동,4,4,서울특별시 중구 퇴계로 지하 126,37.560989,126.986325,37.560989,126.986325,서울특별시,중구,명동
360,충무로4,충무로,4,4,서울특별시 중구 퇴계로 지하 199,37.561243,126.99428,37.561243,126.99428,서울특별시,중구,필동
361,충무로3,충무로,3,3,서울특별시 중구 퇴계로 지하 199,37.561243,126.99428,37.561243,126.99428,서울특별시,중구,필동
362,신당2,신당,2,2,서울특별시 중구 퇴계로 지하 431-1,37.565972,127.01782,37.565972,127.01782,서울특별시,중구,신당동
363,회현4,회현,4,4,서울특별시 중구 퇴계로 지하 54,37.558514,126.978246,37.558514,126.978246,서울특별시,중구,회현동
364,중화7,중화,7,7,서울특별시 중랑구 동일로 지하 797,37.602545,127.079264,37.602545,127.079264,서울특별시,중랑구,중화1동
365,먹골7,먹골,7,7,서울특별시 중랑구 동일로 지하 901,37.610637,127.077725,37.610637,127.077725,서울특별시,중랑구,묵1동
366,상봉G,상봉,G,경춘,서울특별시 중랑구 망우로 297,37.596362,127.085032,37.596362,127.085032,서울특별시,중랑구,상봉1동
367,상봉K,상봉,K,경의중앙,서울특별시 중랑구 망우로 297,37.596362,127.085032,37.596362,127.085032,서울특별시,중랑구,상봉1동
368,상봉7,상봉,7,7,서울특별시 중랑구 망우로 297,37.596362,127.085032,37.596362,127.085032,서울특별시,중랑구,상봉1동
369,망우G,망우,G,경춘,서울특별시 중랑구 망우로55길 11-10,37.59955,127.091909,37.59955,127.091909,서울특별시,중랑구,상봉1동
370,망우K,망우,K,경의중앙,서울특별시 중랑구 망우로55길 11-10,37.59955,127.091909,37.59955,127.091909,서울특별시,중랑구,상봉1동
371,면목7,면목,7,7,서울특별시 중랑구 면목로 지하 407,37.588579,127.087503,37.588579,127.087503,서울특별시,중랑구,면목본동
372,사가정7,사가정,7,7,서울특별시 중랑구 사가정로 지하 393,37.580894,127.088478,37.580894,127.088478,서울특별시,중랑구,면목3.8동
373,양원K,양원,K,경의중앙,서울특별시 중랑구 송림길 147,37.606596,127.107906,37.606596,127.107906,서울특별시,중랑구,망우본동
374,봉화산6,봉화산,6,6,서울특별시 중랑구 신내로 지하 232,37.617283,127.091401,37.617283,127.091401,서울특별시,중랑구,신내2동
375,신내G,신내,G,경춘,서울특별시 중랑구 신내역로 20,37.612887,127.103218,37.612887,127.103218,서울특별시,중랑구,망우본동
376,용마산7,용마산,7,7,서울특별시 중랑구 용마산로 지하 227,37.573647,127.086727,37.57364699999999,127.086727,서울특별시,중랑구,면목4동
377,중랑K,중랑,K,경의중앙,서울특별시 중랑구 중랑역로 9,37.594917,127.076116,37.594917,127.076116,서울특별시,중랑구,중화2동
378,중랑G,중랑,G,경춘,서울특별시 중랑구 중랑역로 9,37.594917,127.076116,37.594917,127.076116,서울특별시,중랑구,중화2동
379,삼전9,삼전,9,9,서울특별시 송파구 잠실동 347,37.504569,127.087761,37.504569,127.087761,서울특별시,송파구,잠실본동
380,석촌고분9,석촌고분,9,9,서울특별시 송파구 삼전동 157,37.502407,127.096853,37.502407,127.096853,서울특별시,송파구,삼전동
381,석촌9,석촌,9,9,서울특별시 송파구 석촌동 322,37.505158,127.107288,37.505158,127.107288,서울특별시,송파구,송파1동
382,송파나루9,송파나루,9,9,서울특별시 송파구 송파동 3,37.510272,127.112185,37.510272,127.112185,서울특별시,송파구,송파1동
383,한성백제9,한성백제,9,9,서울특별시 송파구 방이동 88-17,37.516494,127.11594,37.516494,127.11594,서울특별시,송파구,오륜동
384,올림픽공원9,올림픽공원,9,9,서울특별시 송파구 방이동 89-28,37.516654,127.13115,37.516654,127.13115,서울특별시,송파구,오륜동
385,둔촌오륜9,둔촌오륜,9,9,서울특별시 강동구 둔촌동 227-7,37.519265,127.139029,37.519265,127.139029,서울특별시,강동구,둔촌1동
386,중앙보훈병원9,중앙보훈병원,9,9,서울특별시 강동구 둔촌동 6-3,37.528787,127.148484,37.528787,127.148484,서울특별시,강동구,둔촌2동
387,마곡나루A,마곡나루,A,공항,서울특별시 강서구 마곡동 367-6,37.5668,126.827556,37.5668,126.827556,서울특별시,강서구,가양1동
